DMSP 5D-3 F16 (USA 172) 
1 28054U 03048A   26115.96086257  .00000063  00000+0  56516-4 0  9997
2 28054  98.9931 139.4345 0006009 299.4463 121.2488 14.14476875162104
METEOSAT-9 (MSG-2)      
1 28912U 05049B   26115.93261958  .00000116  00000+0  00000+0 0  9994
2 28912   9.2466  54.6723 0000497 356.0130 184.6448  1.00274462  6474
DMSP 5D-3 F17 (USA 191) 
1 29522U 06050A   26115.91380796  .00000105  00000+0  76728-4 0  9998
2 29522  98.7396 123.5512 0009634 198.9587 161.1230 14.14982478  5032
FENGYUN 3A              
1 32958U 08026A   26115.81878316  .00000078  00000+0  57373-4 0  9993
2 32958  98.6855  57.6408 0007593 281.0589  78.9733 14.19559597927973
GOES 14                 
1 35491U 09033A   26115.87683597 -.00000057  00000+0  00000+0 0  9996
2 35491   1.5570  83.6370 0001710 311.6603 305.3506  1.00116377  6068
DMSP 5D-3 F18 (USA 210) 
1 35951U 09057A   26115.95216805  .00000284  00000+0  17037-3 0  9999
2 35951  98.9016  96.8439 0011922  43.8558 316.3560 14.14865963852203
EWS-G2 (GOES 15)        
1 36411U 10008A   26115.97829042  .00000010  00000+0  00000+0 0  9999
2 36411   1.1403  83.7997 0003885  23.5234 162.1051  1.00272391 59119
COMS 1                  
1 36744U 10032A   26115.87767270 -.00000354  00000+0  00000+0 0  9990
2 36744   4.6726  76.0517 0001020 306.7515 275.1842  1.00272722 50565
FENGYUN 3B              
1 37214U 10059A   26115.97316822  .00000201  00000+0  12734-3 0  9997
2 37214  98.9673 161.7544 0021671 337.4766  90.8496 14.14829704800040
SUOMI NPP               
1 37849U 11061A   26115.89869426  .00000079  00000+0  58562-4 0  9992
2 37849  98.7925  57.1411 0002745 103.9569 256.1913 14.19505834751025
METEOSAT-10 (MSG-3)     
1 38552U 12035B   26115.70968660 -.00000017  00000+0  00000+0 0  9998
2 38552   4.5500  61.2406 0002075 310.7742  97.3874  1.00267683 50338
METOP-B                 
1 38771U 12049A   26115.88870630  .00000094  00000+0  62773-4 0  9998
2 38771  98.6550 168.4200 0003383 125.1604 234.9891 14.21432962705831
INSAT-3D                
1 39216U 13038B   26115.94925966 -.00000351  00000+0  00000+0 0  9999
2 39216   1.7929  83.1635 0001492 279.9920 322.0597  1.00272261 46550
FENGYUN 3C              
1 39260U 13052A   26115.95713075  .00000097  00000+0  70236-4 0  9990
2 39260  98.4951  92.2411 0014781 169.1784 190.9711 14.15742414651175
METEOR-M 2              
1 40069U 14037A   26115.91588598  .00000255  00000+0  13582-3 0  9995
2 40069  98.5087  93.5162 0005560 177.1271 182.9940 14.21446570611898
HIMAWARI-8              
1 40267U 14060A   26115.95142634  .00000000  00000+0  00000+0 0  9997
2 40267   0.0236 103.7909 0000868 289.7936 303.5642  1.00268743 42232
FENGYUN 2G              
1 40367U 14090A   26115.87203934 -.00000313  00000+0  00000+0 0  9991
2 40367   5.5091  73.4313 0002968 146.1556  48.0199  1.00272778 41477
