[{"OBJECT_NAME":"DMSP 5D-3 F16 (USA 172)","OBJECT_ID":"2003-048A","EPOCH":"2026-04-25T23:03:38.526048","MEAN_MOTION":14.14476875,"ECCENTRICITY":0.00060092,"INCLINATION":98.9931,"RA_OF_ASC_NODE":139.4345,"ARG_OF_PERICENTER":299.4463,"MEAN_ANOMALY":121.2488,"EPHEMERIS_TYPE":0,"CLASSIFICATION_TYPE":"U","NORAD_CAT_ID":28054,"ELEMENT_SET_NO":999,"REV_AT_EPOCH":16210,"BSTAR":5.6516303e-5,"MEAN_MOTION_DOT":6.3e-7,"MEAN_MOTION_DDOT":0},{"OBJECT_NAME":"METEOSAT-9 (MSG-2)","OBJECT_ID":"2005-049B","EPOCH":"2026-04-25T22:22:58.331712","MEAN_MOTION":1.00274462,"ECCENTRICITY":4.974e-5,"INCLINATION":9.2466,"RA_OF_ASC_NODE":54.6723,"ARG_OF_PERICENTER":356.013,"MEAN_ANOMALY":184.6448,"EPHEMERIS_TYPE":0,"CLASSIFICATION_TYPE":"U","NORAD_CAT_ID":28912,"ELEMENT_SET_NO":999,"REV_AT_EPOCH":647,"BSTAR":0,"MEAN_MOTION_DOT":1.16e-6,"MEAN_MOTION_DDOT":0},{"OBJECT_NAME":"DMSP 5D-3 F17 (USA 191)","OBJECT_ID":"2006-050A","EPOCH":"2026-04-25T21:55:53.007744","MEAN_MOTION":14.14982478,"ECCENTRICITY":0.00096347,"INCLINATION":98.7396,"RA_OF_ASC_NODE":123.5512,"ARG_OF_PERICENTER":198.9587,"MEAN_ANOMALY":161.123,"EPHEMERIS_TYPE":0,"CLASSIFICATION_TYPE":"U","NORAD_CAT_ID":29522,"ELEMENT_SET_NO":999,"REV_AT_EPOCH":503,"BSTAR":7.67283e-5,"MEAN_MOTION_DOT":1.05e-6,"MEAN_MOTION_DDOT":0},{"OBJECT_NAME":"FENGYUN 3A","OBJECT_ID":"2008-026A","EPOCH":"2026-04-25T19:39:02.865024","MEAN_MOTION":14.19559597,"ECCENTRICITY":0.00075938,"INCLINATION":98.6855,"RA_OF_ASC_NODE":57.6408,"ARG_OF_PERICENTER":281.0589,"MEAN_ANOMALY":78.9733,"EPHEMERIS_TYPE":0,"CLASSIFICATION_TYPE":"U","NORAD_CAT_ID":32958,"ELEMENT_SET_NO":999,"REV_AT_EPOCH":92797,"BSTAR":5.7373302e-5,"MEAN_MOTION_DOT":7.8e-7,"MEAN_MOTION_DDOT":0},{"OBJECT_NAME":"GOES 14","OBJECT_ID":"2009-033A","EPOCH":"2026-04-25T21:02:38.627808","MEAN_MOTION":1.00116377,"ECCENTRICITY":0.00017104,"INCLINATION":1.557,"RA_OF_ASC_NODE":83.637,"ARG_OF_PERICENTER":311.6603,"MEAN_ANOMALY":305.3506,"EPHEMERIS_TYPE":0,"CLASSIFICATION_TYPE":"U","NORAD_CAT_ID":35491,"ELEMENT_SET_NO":999,"REV_AT_EPOCH":606,"BSTAR":0,"MEAN_MOTION_DOT":-5.7e-7,"MEAN_MOTION_DDOT":0},{"OBJECT_NAME":"DMSP 5D-3 F18 (USA 210)","OBJECT_ID":"2009-057A","EPOCH":"2026-04-25T22:51:07.319520","MEAN_MOTION":14.14865963,"ECCENTRICITY":0.00119224,"INCLINATION":98.9016,"RA_OF_ASC_NODE":96.8439,"ARG_OF_PERICENTER":43.8558,"MEAN_ANOMALY":316.356,"EPHEMERIS_TYPE":0,"CLASSIFICATION_TYPE":"U","NORAD_CAT_ID":35951,"ELEMENT_SET_NO":999,"REV_AT_EPOCH":85220,"BSTAR":0.00017037084,"MEAN_MOTION_DOT":2.84e-6,"MEAN_MOTION_DDOT":0},{"OBJECT_NAME":"EWS-G2 (GOES 15)","OBJECT_ID":"2010-008A","EPOCH":"2026-04-25T23:28:44.292288","MEAN_MOTION":1.00272391,"ECCENTRICITY":0.00038852,"INCLINATION":1.1403,"RA_OF_ASC_NODE":83.7997,"ARG_OF_PERICENTER":23.5234,"MEAN_ANOMALY":162.1051,"EPHEMERIS_TYPE":0,"CLASSIFICATION_TYPE":"U","NORAD_CAT_ID":36411,"ELEMENT_SET_NO":999,"REV_AT_EPOCH":5911,"BSTAR":0,"MEAN_MOTION_DOT":1.0e-7,"MEAN_MOTION_DDOT":0},{"OBJECT_NAME":"COMS 1","OBJECT_ID":"2010-032A","EPOCH":"2026-04-25T21:03:50.921280","MEAN_MOTION":1.00272722,"ECCENTRICITY":0.00010208,"INCLINATION":4.6726,"RA_OF_ASC_NODE":76.0517,"ARG_OF_PERICENTER":306.7515,"MEAN_ANOMALY":275.1842,"EPHEMERIS_TYPE":0,"CLASSIFICATION_TYPE":"U","NORAD_CAT_ID":36744,"ELEMENT_SET_NO":999,"REV_AT_EPOCH":5056,"BSTAR":0,"MEAN_MOTION_DOT":-3.54e-6,"MEAN_MOTION_DDOT":0},{"OBJECT_NAME":"FENGYUN 3B","OBJECT_ID":"2010-059A","EPOCH":"2026-04-25T23:21:21.734208","MEAN_MOTION":14.14829704,"ECCENTRICITY":0.00216718,"INCLINATION":98.9673,"RA_OF_ASC_NODE":161.7544,"ARG_OF_PERICENTER":337.4766,"MEAN_ANOMALY":90.8496,"EPHEMERIS_TYPE":0,"CLASSIFICATION_TYPE":"U","NORAD_CAT_ID":37214,"ELEMENT_SET_NO":999,"REV_AT_EPOCH":80004,"BSTAR":0.00012734268,"MEAN_MOTION_DOT":2.01e-6,"MEAN_MOTION_DDOT":0},{"OBJECT_NAME":"SUOMI NPP","OBJECT_ID":"2011-061A","EPOCH":"2026-04-25T21:34:07.184064","MEAN_MOTION":14.19505834,"ECCENTRICITY":0.00027456,"INCLINATION":98.7925,"RA_OF_ASC_NODE":57.1411,"ARG_OF_PERICENTER":103.9569,"MEAN_ANOMALY":256.1913,"EPHEMERIS_TYPE":0,"CLASSIFICATION_TYPE":"U","NORAD_CAT_ID":37849,"ELEMENT_SET_NO":999,"REV_AT_EPOCH":75102,"BSTAR":5.8562439e-5,"MEAN_MOTION_DOT":7.9e-7,"MEAN_MOTION_DDOT":0},{"OBJECT_NAME":"METEOSAT-10 (MSG-3)","OBJECT_ID":"2012-035B","EPOCH":"2026-04-25T17:01:56.922240","MEAN_MOTION":1.00267683,"ECCENTRICITY":0.00020756,"INCLINATION":4.55,"RA_OF_ASC_NODE":61.2406,"ARG_OF_PERICENTER":310.7742,"MEAN_ANOMALY":97.3874,"EPHEMERIS_TYPE":0,"CLASSIFICATION_TYPE":"U","NORAD_CAT_ID":38552,"ELEMENT_SET_NO":999,"REV_AT_EPOCH":5033,"BSTAR":0,"MEAN_MOTION_DOT":-1.7e-7,"MEAN_MOTION_DDOT":0},{"OBJECT_NAME":"METOP-B","OBJECT_ID":"2012-049A","EPOCH":"2026-04-25T21:19:44.224320","MEAN_MOTION":14.21432962,"ECCENTRICITY":0.00033831,"INCLINATION":98.655,"RA_OF_ASC_NODE":168.42,"ARG_OF_PERICENTER":125.1604,"MEAN_ANOMALY":234.9891,"EPHEMERIS_TYPE":0,"CLASSIFICATION_TYPE":"U","NORAD_CAT_ID":38771,"ELEMENT_SET_NO":999,"REV_AT_EPOCH":70583,"BSTAR":6.277316e-5,"MEAN_MOTION_DOT":9.4e-7,"MEAN_MOTION_DDOT":0},{"OBJECT_NAME":"INSAT-3D","OBJECT_ID":"2013-038B","EPOCH":"2026-04-25T22:46:56.034624","MEAN_MOTION":1.00272261,"ECCENTRICITY":0.00014924,"INCLINATION":1.7929,"RA_OF_ASC_NODE":83.1635,"ARG_OF_PERICENTER":279.992,"MEAN_ANOMALY":322.0597,"EPHEMERIS_TYPE":0,"CLASSIFICATION_TYPE":"U","NORAD_CAT_ID":39216,"ELEMENT_SET_NO":999,"REV_AT_EPOCH":4655,"BSTAR":0,"MEAN_MOTION_DOT":-3.51e-6,"MEAN_MOTION_DDOT":0},{"OBJECT_NAME":"FENGYUN 3C","OBJECT_ID":"2013-052A","EPOCH":"2026-04-25T22:58:16.096800","MEAN_MOTION":14.15742414,"ECCENTRICITY":0.00147816,"INCLINATION":98.4951,"RA_OF_ASC_NODE":92.2411,"ARG_OF_PERICENTER":169.1784,"MEAN_ANOMALY":190.9711,"EPHEMERIS_TYPE":0,"CLASSIFICATION_TYPE":"U","NORAD_CAT_ID":39260,"ELEMENT_SET_NO":999,"REV_AT_EPOCH":65117,"BSTAR":7.0236274e-5,"MEAN_MOTION_DOT":9.7e-7,"MEAN_MOTION_DDOT":0},{"OBJECT_NAME":"METEOR-M 2","OBJECT_ID":"2014-037A","EPOCH":"2026-04-25T21:58:52.548672","MEAN_MOTION":14.2144657,"ECCENTRICITY":0.00055601,"INCLINATION":98.5087,"RA_OF_ASC_NODE":93.5162,"ARG_OF_PERICENTER":177.1271,"MEAN_ANOMALY":182.994,"EPHEMERIS_TYPE":0,"CLASSIFICATION_TYPE":"U","NORAD_CAT_ID":40069,"ELEMENT_SET_NO":999,"REV_AT_EPOCH":61189,"BSTAR":0.00013582371,"MEAN_MOTION_DOT":2.55e-6,"MEAN_MOTION_DDOT":0},{"OBJECT_NAME":"HIMAWARI-8","OBJECT_ID":"2014-060A","EPOCH":"2026-04-25T22:50:03.235776","MEAN_MOTION":1.00268743,"ECCENTRICITY":8.68e-5,"INCLINATION":0.0236,"RA_OF_ASC_NODE":103.7909,"ARG_OF_PERICENTER":289.7936,"MEAN_ANOMALY":303.5642,"EPHEMERIS_TYPE":0,"CLASSIFICATION_TYPE":"U","NORAD_CAT_ID":40267,"ELEMENT_SET_NO":999,"REV_AT_EPOCH":4223,"BSTAR":0,"MEAN_MOTION_DOT":0,"MEAN_MOTION_DDOT":0},{"OBJECT_NAME":"FENGYUN 2G","OBJECT_ID":"2014-090A","EPOCH":"2026-04-25T20:55:44.198976","MEAN_MOTION":1.00272778,"ECCENTRICITY":0.00029687,"INCLINATION":5.5091,"RA_OF_ASC_NODE":73.4313,"ARG_OF_PERICENTER":146.1556,"MEAN_ANOMALY":48.0199,"EPHEMERIS_TYPE":0,"CLASSIFICATION_TYPE":"U","NORAD_CAT_ID":40367,"ELEMENT_SET_NO":999,"REV_AT_EPOCH":4147,"BSTAR":0,"MEAN_MOTION_DOT":-3.13e-6,"MEAN_MOTION_DDOT":0}]
